TIANMU-1 20             
1 58661U 23208B   26175.30983500  .00006927  00000+0  22074-3 0  9991
2 58661  97.4446 292.2892 0005631 303.0667  57.0034 15.32855814138515
TIANMU-1 21             
1 58662U 23208C   26175.28742154  .00008625  00000+0  25479-3 0  9996
2 58662  97.4506 294.9781 0005678 292.6020  67.4623 15.35184841138658
TIANMU-1 22             
1 58663U 23208D   26175.26174787  .00006699  00000+0  22528-3 0  9997
2 58663  97.4500 291.5282 0002562 334.3500  25.7613 15.31142284138419
TIANMU-1 15             
1 58700U 24004A   26174.45482660  .00004482  00000+0  17152-3 0  9991
2 58700  97.4673   0.6467 0006084 339.0112  21.0876 15.27076957136731
TIANMU-1 16             
1 58701U 24004B   26175.29718972  .00004687  00000+0  18069-3 0  9998
2 58701  97.4619   0.7182 0005122 341.6523  18.4530 15.26810146136860
TIANMU-1 17             
1 58702U 24004C   26175.28264831  .00004777  00000+0  18412-3 0  9990
2 58702  97.4648   1.1911 0004826 349.3020  10.8115 15.26809020136858
TIANMU-1 18             
1 58703U 24004D   26175.32337405  .00004724  00000+0  18074-3 0  9990
2 58703  97.4664   1.4919 0003328 349.9344  10.1827 15.27065777136867
INSAT-3DS               
1 58990U 24033A   26175.11536620 -.00000149  00000+0  00000+0 0  9991
2 58990   0.0553 103.6589 0001364 339.4299 312.7994  1.00271010 47133
METEOR-M2 4             
1 59051U 24039A   26175.28797787 -.00000003  00000+0  18333-4 0  9999
2 59051  98.7013 134.4969 0007662 141.7497 218.4226 14.22430160120270
GOES 19                 
1 60133U 24119A   26175.22680394 -.00000241  00000+0  00000+0 0  9991
2 60133   0.0442 166.2457 0000423 340.0679 132.5258  1.00271939  7032
MTG-S1                  
1 64723U 25143A   26175.17026662  .00000020  00000+0  00000+0 0  9998
2 64723   0.5974 340.4907 0000628 289.7945  62.5960  1.00400785  3484
METOP-SGA1              
1 65159U 25172A   26175.18681769  .00000024  00000+0  31621-4 0  9992
2 65159  98.6643 234.7654 0008234  32.7851 327.3835 14.19816040 44786
FENGYUN 3H              
1 65815U 25219A   26175.29907481  .00000032  00000+0  35621-4 0  9990
2 65815  98.6768 115.9299 0001541  71.7657 288.3688 14.19921497 38394
