OBJECT_NAME,OBJECT_ID,EPOCH,MEAN_MOTION,ECCENTRICITY,INCLINATION,RA_OF_ASC_NODE,ARG_OF_PERICENTER,MEAN_ANOMALY,EPHEMERIS_TYPE,CLASSIFICATION_TYPE,NORAD_CAT_ID,ELEMENT_SET_NO,REV_AT_EPOCH,BSTAR,MEAN_MOTION_DOT,MEAN_MOTION_DDOT
TIANMU-1 20,2023-208B,2026-06-24T07:26:09.744000,15.32855814,.00056317,97.4446,292.2892,303.0667,57.0034,0,U,58661,999,13851,.22073779E-3,.6927E-4,0
TIANMU-1 21,2023-208C,2026-06-24T06:53:53.221056,15.35184841,.00056782,97.4506,294.9781,292.6020,67.4623,0,U,58662,999,13865,.25479091E-3,.8625E-4,0
TIANMU-1 22,2023-208D,2026-06-24T06:16:55.015968,15.31142284,.00025622,97.4500,291.5282,334.3500,25.7613,0,U,58663,999,13841,.22527929E-3,.6699E-4,0
TIANMU-1 15,2024-004A,2026-06-23T10:54:57.018240,15.27076957,.00060849,97.4673,0.6467,339.0112,21.0876,0,U,58700,999,13673,.17151603E-3,.4482E-4,0
TIANMU-1 16,2024-004B,2026-06-24T07:07:57.191808,15.26810146,.00051227,97.4619,0.7182,341.6523,18.4530,0,U,58701,999,13686,.18069241E-3,.4687E-4,0
TIANMU-1 17,2024-004C,2026-06-24T06:47:00.813984,15.26809020,.0004826,97.4648,1.1911,349.3020,10.8115,0,U,58702,999,13685,.18412051E-3,.4777E-4,0
TIANMU-1 18,2024-004D,2026-06-24T07:45:39.517920,15.27065777,.00033287,97.4664,1.4919,349.9344,10.1827,0,U,58703,999,13686,.18074041E-3,.4724E-4,0
INSAT-3DS,2024-033A,2026-06-24T02:46:07.639680,1.00271010,.00013641,0.0553,103.6589,339.4299,312.7994,0,U,58990,999,4713,0,-.149E-5,0
METEOR-M2 4,2024-039A,2026-06-24T06:54:41.287968,14.22430160,.00076624,98.7013,134.4969,141.7497,218.4226,0,U,59051,999,12027,.18333212E-4,-.3E-7,0
GOES 19,2024-119A,2026-06-24T05:26:35.860416,1.00271939,.00004238,0.0442,166.2457,340.0679,132.5258,0,U,60133,999,703,0,-.241E-5,0
MTG-S1,2025-143A,2026-06-24T04:05:11.035968,1.00400785,.00006287,0.5974,340.4907,289.7945,62.5960,0,U,64723,999,348,0,.2E-6,0
METOP-SGA1,2025-172A,2026-06-24T04:29:01.048416,14.19816040,.0008234,98.6643,234.7654,32.7851,327.3835,0,U,65159,999,4478,.31620811E-4,.24E-6,0
FENGYUN 3H,2025-219A,2026-06-24T07:10:40.063584,14.19921497,.0001541,98.6768,115.9299,71.7657,288.3688,0,U,65815,999,3839,.3562092E-4,.32E-6,0
